[{"OBJECT_NAME":"SITRO-AIS 23","OBJECT_ID":"2024-199H","EPOCH":"2026-03-09T22:39:00.533088","MEAN_MOTION":14.95417613,"ECCENTRICITY":0.001348,"INCLINATION":97.3327,"RA_OF_ASC_NODE":273.3902,"ARG_OF_PERICENTER":42.7028,"MEAN_ANOMALY":317.5239,"EPHEMERIS_TYPE":0,"CLASSIFICATION_TYPE":"U","NORAD_CAT_ID":61742,"ELEMENT_SET_NO":999,"REV_AT_EPOCH":11693,"BSTAR":0.00028445892,"MEAN_MOTION_DOT":3.096e-5,"MEAN_MOTION_DDOT":0},{"OBJECT_NAME":"SL-14 R\/B","OBJECT_ID":"1979-011B","EPOCH":"2026-03-09T13:55:54.072480","MEAN_MOTION":14.91907955,"ECCENTRICITY":0.0017409,"INCLINATION":82.5209,"RA_OF_ASC_NODE":96.6746,"ARG_OF_PERICENTER":60.8949,"MEAN_ANOMALY":299.4011,"EPHEMERIS_TYPE":0,"CLASSIFICATION_TYPE":"U","NORAD_CAT_ID":11267,"ELEMENT_SET_NO":999,"REV_AT_EPOCH":52876,"BSTAR":6.7656e-5,"MEAN_MOTION_DOT":7.11e-6,"MEAN_MOTION_DDOT":0}]
